IRIDIUM 33 DEB          
1 35918U 97051UB  17346.44484063  .00000723  00000-0  24309-3 0  9995
2 35918  86.4101 223.9943 0032771  64.2317  60.3100 14.35495333434273
